H1 CPF 01  gfz 2022 04 28 12  6182 tandemx   
H2 1003001  6202 36605    2022 04 28 12 59 42 2022 05 03 00 00 42   120 1 1  0 0 0
H9
10 0 59700  69102.000000  0    6109609.208  -2242475.635   2250520.332
10 0 59700  69222.000000  0    5715168.739  -2288038.479   3082714.060
10 0 59700  69342.000000  0    5220412.893  -2285810.270   3860619.348
10 0 59700  69462.000000  0    4634858.694  -2234164.677   4570548.754
10 0 59700  69582.000000  0    3969635.676  -2132523.654   5200023.569
10 0 59700  69702.000000  0    3237266.170  -1981391.740   5737994.398
10 0 59700  69822.000000  0    2451419.986  -1782366.668   6175031.881
10 0 59700  69942.000000  0    1626653.036  -1538126.688   6503486.259
10 0 59700  70062.000000  0     778133.265  -1252395.660   6717615.591
10 0 59700  70182.000000  0     -78641.050   -929885.572   6813680.442
10 0 59700  70302.000000  0    -928124.634   -576217.850   6790004.068
10 0 59700  70422.000000  0   -1755005.977   -197825.451   6646999.370
10 0 59700  70542.000000  0   -2544482.077    198163.817   6387162.158
10 0 59700  70662.000000  0   -3282523.051    604060.740   6015031.032
10 0 59700  70782.000000  0   -3956123.328   1011762.555   5537113.698
10 0 59700  70902.000000  0   -4553535.683   1412912.880   4961779.422
10 0 59700  71022.000000  0   -5064482.737   1799071.724   4299118.023
10 0 59700  71142.000000  0   -5480341.843   2161891.921   3560766.834
10 0 59700  71262.000000  0   -5794298.423   2493297.794   2759708.359
10 0 59700  71382.000000  0   -6001465.573   2785662.467   1910042.191
10 0 59700  71502.000000  0   -6098967.151   3031979.847   1026733.767
10 0 59700  71622.000000  0   -6085980.183   3226026.578    125343.516
10 0 59700  71742.000000  0   -5963734.847   3362509.228   -778255.409
10 0 59700  71862.000000  0   -5735473.639   3437192.984  -1668165.401
10 0 59700  71982.000000  0   -5406370.351   3447009.330  -2528753.492
10 0 59700  72102.000000  0   -4983408.709   3390138.832  -3344933.242
10 0 59700  72222.000000  0   -4475227.064   3266067.784  -4102432.818
10 0 59700  72342.000000  0   -3891932.766   3075617.528  -4788043.515
10 0 59700  72462.000000  0   -3244892.644   2820946.678  -5389845.205
10 0 59700  72582.000000  0   -2546505.248   2505526.872  -5897404.359
10 0 59700  72702.000000  0   -1809959.737   2134093.747  -6301945.558
10 0 59700  72822.000000  0   -1048984.208   1712572.582  -6596491.600
10 0 59700  72942.000000  0    -277592.042   1247982.151  -6775971.848
10 0 59700  73062.000000  0     490171.356    748317.879  -6837299.836
10 0 59700  73182.000000  0    1240477.292    222417.010  -6779421.636
10 0 59700  73302.000000  0    1959958.292   -320194.611  -6603332.570
10 0 59700  73422.000000  0    2635940.251   -869470.646  -6312060.905
10 0 59700  73542.000000  0    3256662.079  -1415025.308  -5910621.944
10 0 59700  73662.000000  0    3811478.571  -1946324.303  -5405940.387
10 0 59700  73782.000000  0    4291045.582  -2452885.094  -4806743.098
10 0 59700  73902.000000  0    4687482.378  -2924482.853  -4123418.798
10 0 59700  74022.000000  0    4994507.416  -3351356.499  -3367848.151
10 0 59700  74142.000000  0    5207546.527  -3724411.402  -2553205.754
10 0 59700  74262.000000  0    5323809.801  -4035414.584  -1693734.752
10 0 59700  74382.000000  0    5342333.580  -4277176.919   -804498.673
10 0 59700  74502.000000  0    5263986.810  -4443718.387     98885.482
10 0 59700  74622.000000  0    5091440.350  -4530411.966   1000527.788
10 0 59700  74742.000000  0    4829098.598  -4534100.384   1884553.800
10 0 59700  74862.000000  0    4482996.000  -4453183.086   2735393.067
10 0 59700  74982.000000  0    4060661.668  -4287671.194   3538061.184
10 0 59700  75102.000000  0    3570955.168  -4039210.389   4278430.139
10 0 59700  75222.000000  0    3023876.748  -3711069.974   4943481.300
10 0 59700  75342.000000  0    2430358.520  -3308098.243   5521534.730
10 0 59700  75462.000000  0    1802041.819  -2836647.227   6002452.855
10 0 59700  75582.000000  0    1151044.255  -2304467.097   6377813.663
10 0 59700  75702.000000  0     489723.473  -1720574.613   6641051.944
10 0 59700  75822.000000  0    -169558.769  -1095097.445   6787568.070
10 0 59700  75942.000000  0    -814667.161   -439096.413   6814803.460
10 0 59700  76062.000000  0   -1433915.182    235630.638   6722282.071
10 0 59700  76182.000000  0   -2016276.149    916760.630   6511618.210
10 0 59700  76302.000000  0   -2551579.323   1591669.538   6186490.151
10 0 59700  76422.000000  0   -3030688.372   2247665.579   5752579.962
10 0 59700  76542.000000  0   -3445659.674   2872228.386   5217480.676
10 0 59700  76662.000000  0   -3789878.225   3453250.142   4590569.383
10 0 59700  76782.000000  0   -4058167.817   3979273.453   3882848.175
10 0 59700  76902.000000  0   -4246873.180   4439722.348   3106754.841
10 0 59700  77022.000000  0   -4353911.915   4825120.626   2275944.640
10 0 59700  77142.000000  0   -4378793.586   5127291.331   1405047.089
10 0 59700  77262.000000  0   -4322607.063   5339532.415    509403.518
10 0 59700  77382.000000  0   -4187976.452   5456765.195   -395209.814
10 0 59700  77502.000000  0   -3978984.925   5475652.108  -1292869.310
10 0 59700  77622.000000  0   -3701067.847   5394676.673  -2167795.160
10 0 59700  77742.000000  0   -3360878.704   5214186.691  -3004635.742
10 0 59700  77862.000000  0   -2966132.531   4936399.968  -3788742.342
10 0 59700  77982.000000  0   -2525431.123   4565371.219  -4506426.225
10 0 59700  78102.000000  0   -2048074.703   4106924.078  -5145193.590
10 0 59700  78222.000000  0   -1543865.684   3568551.716  -5693955.252
10 0 59700  78342.000000  0   -1022908.131   2959286.887  -6143210.939
10 0 59700  78462.000000  0    -495406.377   2289543.342  -6485203.337
10 0 59700  78582.000000  0      28532.122   1570934.253  -6714039.783
10 0 59700  78702.000000  0     539085.575    816070.954  -6825783.669
10 0 59700  78822.000000  0    1026897.519     38344.885  -6818515.511
10 0 59700  78942.000000  0    1483244.484   -748305.696  -6692361.975
10 0 59700  79062.000000  0    1900187.595  -1529639.399  -6449492.409
10 0 59700  79182.000000  0    2270707.841  -2291362.424  -6094085.872
10 0 59700  79302.000000  0    2588823.352  -3019383.945  -5632267.824
10 0 59700  79422.000000  0    2849687.443  -3700075.349  -5072016.724
10 0 59700  79542.000000  0    3049664.787  -4320526.919  -4423035.540
10 0 59700  79662.000000  0    3186382.865  -4868793.977  -3696593.588
10 0 59700  79782.000000  0    3258760.107  -5334132.333  -2905341.957
10 0 59700  79902.000000  0    3267008.710  -5707218.263  -2063099.711
10 0 59700  80022.000000  0    3212611.200  -5980343.865  -1184614.649
10 0 59700  80142.000000  0    3098270.997  -6147584.981   -285303.562
10 0 59700  80262.000000  0    2927836.553  -6204934.978    619024.453
10 0 59700  80382.000000  0    2706201.535  -6150400.821   1512452.576
10 0 59700  80502.000000  0    2439184.217  -5984060.354   2379246.287
10 0 59700  80622.000000  0    2133387.055  -5708074.933   3204140.037
10 0 59700  80742.000000  0    1796041.776  -5326660.323   3972612.220
10 0 59700  80862.000000  0    1434843.792  -4846018.011   4671145.231
10 0 59700  80982.000000  0    1057780.955  -4274227.211   5287465.110
10 0 59700  81102.000000  0     672959.380  -3621100.888   5810758.032
10 0 59700  81222.000000  0     288430.335  -2898006.878   6231856.248
10 0 59700  81342.000000  0     -87976.377  -2117662.648   6543391.714
10 0 59700  81462.000000  0    -448809.609  -1293907.556   6739918.346
10 0 59700  81582.000000  0    -787142.679   -441455.653   6818002.687
10 0 59700  81702.000000  0   -1096705.149    424368.586   6776280.865
10 0 59700  81822.000000  0   -1371998.571   1287905.839   6615480.644
10 0 59700  81942.000000  0   -1608393.841   2133444.435   6338409.282
10 0 59700  82062.000000  0   -1802209.526   2945505.896   5949907.736
10 0 59700  82182.000000  0   -1950769.561   3709129.324   5456770.661
10 0 59700  82302.000000  0   -2052439.230   4410149.763   4867634.135
10 0 59700  82422.000000  0   -2106639.777   5035467.156   4192830.658
10 0 59700  82542.000000  0   -2113840.025   5573299.100   3444212.107
10 0 59700  82662.000000  0   -2075525.830   6013411.747   2634943.003
10 0 59700  82782.000000  0   -1994147.502   6347323.005   1779267.956
10 0 59700  82902.000000  0   -1873045.919   6568474.168    892257.015
10 0 59700  83022.000000  0   -1716358.891   6672364.556    -10465.899
10 0 59700  83142.000000  0   -1528911.017   6656646.102   -913006.012
10 0 59700  83262.000000  0   -1316088.933   6521175.677  -1799488.305
10 0 59700  83382.000000  0   -1083704.482   6268018.186  -2654347.400
10 0 59700  83502.000000  0    -837851.699   5901404.873  -3462605.306
10 0 59700  83622.000000  0    -584760.610   5427652.013  -4210134.789
10 0 59700  83742.000000  0    -330651.498   4855040.174  -4883905.194
10 0 59700  83862.000000  0     -81592.648   4193657.671  -5472204.385
10 0 59700  83982.000000  0     156635.455   3455212.645  -5964834.992
10 0 59700  84102.000000  0     378666.071   2652816.873  -6353281.174
10 0 59700  84222.000000  0     579659.239   1800747.920  -6630843.688
10 0 59700  84342.000000  0     755401.152    914195.175  -6792744.627
10 0 59700  84462.000000  0     902387.664      8991.762  -6836201.102
10 0 59700  84582.000000  0    1017890.928   -898663.176  -6760467.740
10 0 59700  84702.000000  0    1100008.094  -1792487.568  -6566846.369
10 0 59700  84822.000000  0    1147691.966  -2656399.683  -6258665.681
10 0 59700  84942.000000  0    1160763.936  -3474801.112  -5841232.489
10 0 59700  85062.000000  0    1139906.972  -4232857.289  -5321750.386
10 0 59700  85182.000000  0    1086640.298  -4916766.779  -4709205.218
10 0 59700  85302.000000  0    1003275.926  -5514016.497  -4014221.695
10 0 59700  85422.000000  0     892856.532  -6013619.286  -3248889.173
10 0 59700  85542.000000  0     759076.480  -6406326.603  -2426558.709
99
